[{"OBJECT_NAME":"STARLINK-4342","OBJECT_ID":"2022-077AD","EPOCH":"2026-03-09T22:16:51.769344","MEAN_MOTION":15.05631046,"ECCENTRICITY":7.864e-5,"INCLINATION":97.6021,"RA_OF_ASC_NODE":251.546,"ARG_OF_PERICENTER":86.6122,"MEAN_ANOMALY":273.5195,"EPHEMERIS_TYPE":0,"CLASSIFICATION_TYPE":"U","NORAD_CAT_ID":53070,"ELEMENT_SET_NO":999,"REV_AT_EPOCH":20102,"BSTAR":0.0001974698,"MEAN_MOTION_DOT":2.788e-5,"MEAN_MOTION_DDOT":0},{"OBJECT_NAME":"OBJECT H","OBJECT_ID":"2025-292H","EPOCH":"2026-03-09T22:24:53.558208","MEAN_MOTION":15.06373042,"ECCENTRICITY":0.00142604,"INCLINATION":97.6442,"RA_OF_ASC_NODE":145.7846,"ARG_OF_PERICENTER":348.9217,"MEAN_ANOMALY":11.1694,"EPHEMERIS_TYPE":0,"CLASSIFICATION_TYPE":"U","NORAD_CAT_ID":67000,"ELEMENT_SET_NO":999,"REV_AT_EPOCH":1338,"BSTAR":0.0005462937,"MEAN_MOTION_DOT":8.001e-5,"MEAN_MOTION_DDOT":0}]
